{
  "type": "FeatureCollection",
  "features": [
    {
      "type": "Feature",
      "properties": {
        "norad_id": 36036,
        "name": "SMOS",
        "group": "resource",
        "lat": -45.54031723865061,
        "lon": -14.207764952616406,
        "alt_km": 766.7050737188829,
        "timestamp": "2025-12-15T11:38:36.814378+00:00",
        "meta_object_name": "SMOS",
        "meta_object_id": "2009-059A",
        "meta_epoch": "2025-12-14T17:55:02.589600",
        "meta_mean_motion": 14.39742979,
        "meta_eccentricity": 0.00011,
        "meta_inclination": 98.438,
        "meta_ra_of_asc_node": 173.7653,
        "meta_arg_of_pericenter": 84.0802,
        "meta_mean_anomaly": 276.0512,
        "meta_ephemeris_type": 0,
        "meta_classification_type": "U",
        "meta_norad_cat_id": 36036,
        "meta_element_set_no": 999,
        "meta_rev_at_epoch": 84691,
        "meta_bstar": 0.00015675625,
        "meta_mean_motion_dot": 4.48e-06,
        "meta_mean_motion_ddot": 0,
        "tle_line1": "1 36036U 09059A   25348.74655775  .00000448  00000+0  15676-3 0  9992",
        "tle_line2": "2 36036  98.4380 173.7653 0001100  84.0802 276.0512 14.39742979846914"
      },
      "geometry": {
        "type": "Point",
        "coordinates": [
          -14.207764952616406,
          -45.54031723865061
        ]
      }
    },
    {
      "type": "Feature",
      "properties": {
        "norad_id": 36110,
        "name": "YAOGAN-7",
        "group": "resource",
        "lat": 64.7604565686239,
        "lon": -146.1930081935564,
        "alt_km": 644.8702432145355,
        "timestamp": "2025-12-15T11:38:36.814388+00:00",
        "meta_object_name": "YAOGAN-7",
        "meta_object_id": "2009-069A",
        "meta_epoch": "2025-12-14T22:20:40.565184",
        "meta_mean_motion": 14.7773545,
        "meta_eccentricity": 0.00233353,
        "meta_inclination": 98.0299,
        "meta_ra_of_asc_node": 230.6802,
        "meta_arg_of_pericenter": 273.8152,
        "meta_mean_anomaly": 86.039,
        "meta_ephemeris_type": 0,
        "meta_classification_type": "U",
        "meta_norad_cat_id": 36110,
        "meta_element_set_no": 999,
        "meta_rev_at_epoch": 86241,
        "meta_bstar": 0.0001002831,
        "meta_mean_motion_dot": 6.69e-06,
        "meta_mean_motion_ddot": 0,
        "tle_line1": "1 36110U 09069A   25348.93102506  .00000669  00000+0  10028-3 0  9997",
        "tle_line2": "2 36110  98.0299 230.6802 0023335 273.8152  86.0390 14.77735450862415"
      },
      "geometry": {
        "type": "Point",
        "coordinates": [
          -146.1930081935564,
          64.7604565686239
        ]
      }
    },
    {
      "type": "Feature",
      "properties": {
        "norad_id": 36605,
        "name": "TANDEM-X",
        "group": "resource",
        "lat": 0.10649717270633494,
        "lon": -5.187214703698977,
        "alt_km": 511.22901839608585,
        "timestamp": "2025-12-15T11:38:36.814399+00:00",
        "meta_object_name": "TANDEM-X",
        "meta_object_id": "2010-030A",
        "meta_epoch": "2025-12-14T15:05:32.230464",
        "meta_mean_motion": 15.19156095,
        "meta_eccentricity": 0.00019257,
        "meta_inclination": 97.4454,
        "meta_ra_of_asc_node": 353.9828,
        "meta_arg_of_pericenter": 83.4847,
        "meta_mean_anomaly": 276.6607,
        "meta_ephemeris_type": 0,
        "meta_classification_type": "U",
        "meta_norad_cat_id": 36605,
        "meta_element_set_no": 999,
        "meta_rev_at_epoch": 85862,
        "meta_bstar": 9.6223592e-05,
        "meta_mean_motion_dot": 1.954e-05,
        "meta_mean_motion_ddot": 0,
        "tle_line1": "1 36605U 10030A   25348.62884526  .00001954  00000+0  96224-4 0  9992",
        "tle_line2": "2 36605  97.4454 353.9828 0001925  83.4847 276.6607 15.19156095858629"
      },
      "geometry": {
        "type": "Point",
        "coordinates": [
          -5.187214703698977,
          0.10649717270633494
        ]
      }
    },
    {
      "type": "Feature",
      "properties": {
        "norad_id": 36795,
        "name": "CARTOSAT-2B",
        "group": "resource",
        "lat": 2.7910014714977325,
        "lon": 38.04439351207367,
        "alt_km": 632.1502936413463,
        "timestamp": "2025-12-15T11:38:36.814408+00:00",
        "meta_object_name": "CARTOSAT-2B",
        "meta_object_id": "2010-035A",
        "meta_epoch": "2025-12-14T22:38:19.748832",
        "meta_mean_motion": 14.78727798,
        "meta_eccentricity": 0.00130225,
        "meta_inclination": 97.7856,
        "meta_ra_of_asc_node": 37.9023,
        "meta_arg_of_pericenter": 69.8892,
        "meta_mean_anomaly": 290.372,
        "meta_ephemeris_type": 0,
        "meta_classification_type": "U",
        "meta_norad_cat_id": 36795,
        "meta_element_set_no": 999,
        "meta_rev_at_epoch": 83262,
        "meta_bstar": 9.9384377e-05,
        "meta_mean_motion_dot": 6.8e-06,
        "meta_mean_motion_ddot": 0,
        "tle_line1": "1 36795U 10035A   25348.94328413  .00000680  00000+0  99384-4 0  9995",
        "tle_line2": "2 36795  97.7856  37.9023 0013022  69.8892 290.3720 14.78727798832622"
      },
      "geometry": {
        "type": "Point",
        "coordinates": [
          38.04439351207367,
          2.7910014714977325
        ]
      }
    },
    {
      "type": "Feature",
      "properties": {
        "norad_id": 36834,
        "name": "YAOGAN-10",
        "group": "resource",
        "lat": 38.08474792424863,
        "lon": -164.45541733931753,
        "alt_km": 611.5429174760939,
        "timestamp": "2025-12-15T11:38:36.814418+00:00",
        "meta_object_name": "YAOGAN-10",
        "meta_object_id": "2010-038A",
        "meta_epoch": "2025-12-14T23:50:16.600416",
        "meta_mean_motion": 14.84616711,
        "meta_eccentricity": 0.00013827,
        "meta_inclination": 97.9148,
        "meta_ra_of_asc_node": 8.7973,
        "meta_arg_of_pericenter": 81.3202,
        "meta_mean_anomaly": 312.6424,
        "meta_ephemeris_type": 0,
        "meta_classification_type": "U",
        "meta_norad_cat_id": 36834,
        "meta_element_set_no": 999,
        "meta_rev_at_epoch": 82987,
        "meta_bstar": 0.0001656195,
        "meta_mean_motion_dot": 1.346e-05,
        "meta_mean_motion_ddot": 0,
        "tle_line1": "1 36834U 10038A   25348.99324769  .00001346  00000+0  16562-3 0  9993",
        "tle_line2": "2 36834  97.9148   8.7973 0001382  81.3202 312.6424 14.84616711829873"
      },
      "geometry": {
        "type": "Point",
        "coordinates": [
          -164.45541733931753,
          38.08474792424863
        ]
      }
    },
    {
      "type": "Feature",
      "properties": {
        "norad_id": 37216,
        "name": "COSMO-SKYMED 4",
        "group": "resource",
        "lat": 39.70993170213191,
        "lon": 164.16100259546045,
        "alt_km": 618.7733781799825,
        "timestamp": "2025-12-15T11:38:36.814428+00:00",
        "meta_object_name": "COSMO-SKYMED 4",
        "meta_object_id": "2010-060A",
        "meta_epoch": "2025-12-14T22:30:03.227904",
        "meta_mean_motion": 14.82149135,
        "meta_eccentricity": 0.00013792,
        "meta_inclination": 97.8807,
        "meta_ra_of_asc_node": 170.2275,
        "meta_arg_of_pericenter": 82.4751,
        "meta_mean_anomaly": 277.6619,
        "meta_ephemeris_type": 0,
        "meta_classification_type": "U",
        "meta_norad_cat_id": 37216,
        "meta_element_set_no": 999,
        "meta_rev_at_epoch": 81727,
        "meta_bstar": 0.00013294921,
        "meta_mean_motion_dot": 1.006e-05,
        "meta_mean_motion_ddot": 0,
        "tle_line1": "1 37216U 10060A   25348.93753736  .00001006  00000+0  13295-3 0  9990",
        "tle_line2": "2 37216  97.8807 170.2275 0001379  82.4751 277.6619 14.82149135817272"
      },
      "geometry": {
        "type": "Point",
        "coordinates": [
          164.16100259546045,
          39.70993170213191
        ]
      }
    },
    {
      "type": "Feature",
      "properties": {
        "norad_id": 37387,
        "name": "RESOURCESAT-2",
        "group": "resource",
        "lat": 51.26335569522054,
        "lon": -115.85767101054111,
        "alt_km": 815.3738956067182,
        "timestamp": "2025-12-15T11:38:36.814438+00:00",
        "meta_object_name": "RESOURCESAT-2",
        "meta_object_id": "2011-015A",
        "meta_epoch": "2025-12-14T21:31:53.039424",
        "meta_mean_motion": 14.21598081,
        "meta_eccentricity": 0.0006337,
        "meta_inclination": 98.7876,
        "meta_ra_of_asc_node": 52.4393,
        "meta_arg_of_pericenter": 36.9441,
        "meta_mean_anomaly": 323.2172,
        "meta_ephemeris_type": 0,
        "meta_classification_type": "U",
        "meta_norad_cat_id": 37387,
        "meta_element_set_no": 999,
        "meta_rev_at_epoch": 75999,
        "meta_bstar": 9.3451195e-05,
        "meta_mean_motion_dot": 1.6e-06,
        "meta_mean_motion_ddot": 0,
        "tle_line1": "1 37387U 11015A   25348.89714166  .00000160  00000+0  93451-4 0  9992",
        "tle_line2": "2 37387  98.7876  52.4393 0006337  36.9441 323.2172 14.21598081759995"
      },
      "geometry": {
        "type": "Point",
        "coordinates": [
          -115.85767101054111,
          51.26335569522054
        ]
      }
    }
  ]
}